1 40088U 14040C   16063.59131126 +.00000129 +00000-0 +70813-4 0  9998,2 40088 047.0049 121.9394 0022669 249.6452 110.1995 14.53054157086917
1 40088U 14040C   16063.93511479  .00000075  00000-0  57873-4 0  9990,2 40088  47.0049 120.3289 0022679 251.1721 108.6702 14.53054243 87118
1 40088U 14040C   16064.62272194 +.00000132 +00000-0 +71514-4 0  9997,2 40088 047.0048 117.1081 0022688 254.2099 105.6282 14.53054807087063
1 40088U 14040C   16065.17280747  .00000144  00000-0  74339-4 0  9992,2 40088  47.0047 114.5312 0022701 256.6449 103.1903 14.53055206 87293
1 40088U 14040C   16065.58537178 +.00000158 +00000-0 +77673-4 0  9999,2 40088 047.0047 112.5987 0022698 258.4542 101.3793 14.53055500087203
1 40088U 14040C   16066.47926077  .00000164  00000-0  79075-4 0  9993,2 40088  47.0048 108.4115 0022720 262.4288  97.4014 14.53056012 87489
1 40088U 14040C   16066.54802144 +.00000174 +00000-0 +81396-4 0  9999,2 40088 047.0048 108.0894 0022720 262.7384 097.0917 14.53056111087342
1 40088U 14040C   16067.51067064  .00000205  00000-0  88949-4 0  9997,2 40088  47.0048 103.5801 0022726 266.9764  92.8519 14.53056974 87634
1 40088U 14040C   16067.57943133 +.00000202 +00000-0 +88236-4 0  9999,2 40088 047.0048 103.2580 0022726 267.2772 092.5510 14.53056999087497
1 40088U 14040C   16068.54208050 +.00000179 +00000-0 +82553-4 0  9998,2 40088 047.0048 098.7487 0022727 271.5374 088.2906 14.53057554087633
1 40088U 14040C   16069.09216564  .00000156  00000-0  77277-4 0  9990,2 40088  47.0049  96.1718 0022733 273.9635  85.8650 14.53057823 87869
1 40088U 14040C   16069.50472952 +.00000164 +00000-0 +79158-4 0  9990,2 40088 047.0049 094.2394 0022727 275.7965 084.0327 14.53058157087770
1 40088U 14040C   16070.19233579  .00000148  00000-0  75332-4 0  9999,2 40088  47.0049  91.0184 0022727 278.8228  81.0082 14.53058593 88026
1 40088U 14040C   16070.53613896 +.00000157 +00000-0 +77295-4 0  9991,2 40088 047.0049 089.4080 0022721 280.3561 079.4762 14.53058881087928
1 40088U 14040C   16071.49878751  .00000154  00000-0  76759-4 0  9991,2 40088  47.0050  84.8986 0022710 284.6130  75.2235 14.53059609 88212
1 40088U 14040C   16072.46143577 +.00000181 +00000-0 +83168-4 0  9992,2 40088 047.0050 080.3893 0022696 288.8650 070.9772 14.53060512088208
1 40088U 14040C   16073.14904169  .00000144  00000-0  74322-4 0  9991,2 40088  47.0050  77.1681 0022686 291.8949  67.9522 14.53060801 88458
1 40088U 14040C   16073.49284472 +.00000162 +00000-0 +78566-4 0  9991,2 40088 047.0050 075.5578 0022676 293.4349 066.4150 14.53061107088356
1 40088U 14040C   16074.18045049  .00000116  00000-0  67645-4 0  9998,2 40088  47.0051  72.3367 0022661 296.4670  63.3889 14.53061344 88608
1 40088U 14040C   16074.45549283 +.00000116 +00000-0 +67600-4 0  9998,2 40088 047.0051 071.0483 0022651 297.6977 062.1608 14.53061518088491
1 40088U 14040C   16075.41814072  .00000199  00000-0  87441-4 0  9992,2 40088  47.0052  66.5390 0022627 301.9971  57.8714 14.53062605 88783
1 40088U 14040C   16075.96822525 +.00000172 +00000-0 +81002-4 0  9992,2 40088 047.0053 063.9621 0022616 304.4429 055.4317 14.53062793088710
1 40088U 14040C   16076.44954895  .00000215  00000-0  91286-4 0  9995,2 40088  47.0054  61.7075 0022593 306.5589  53.3215 14.53063394 88930
1 40088U 14040C   16076.93087284 +.00000159 +00000-0 +78027-4 0  9993,2 40088 047.0055 059.4527 0022580 308.6969 051.1895 14.53063386088850
1 40088U 14040C   16077.96228071 +.00000147 +00000-0 +75149-4 0  9997,2 40088 047.0056 054.6213 0022539 313.2576 046.6426 14.53064044089009
1 40088U 14040C   16078.16856229  .00000175  00000-0  81797-4 0  9999,2 40088  47.0057  53.6550 0022527 314.1554  45.7477 14.53064322 89180
1 40088U 14040C   16078.92492790 +.00000147 +00000-0 +75092-4 0  9992,2 40088 047.0058 050.1120 0022501 317.5234 042.3908 14.53064681089146
1 40088U 14040C   16079.40625155  .00000152  00000-0  76292-4 0  9998,2 40088  47.0059  47.8575 0022474 319.6897  40.2320 14.53065001 89367
1 40088U 14040C   16079.95633542 +.00000134 +00000-0 +71923-4 0  9993,2 40088 047.0059 045.2807 0022450 322.1399 037.7905 14.53065302089293
1 40088U 14040C   16080.36889849 +.00000137 +00000-0 +72679-4 0  9995,2 40088 047.0060 043.3483 0022426 324.0115 035.9258 14.53065563089351
1 40088U 14040C   16081.12526374  .00000121  00000-0  68766-4 0  9996,2 40088  47.0061  39.8053 0022388 327.3877  32.5623 14.53065979 89612
1 40088U 14040C   16081.88162891 +.00000109 +00000-0 +65929-4 0  9993,2 40088 047.0062 036.2623 0022354 330.7919 029.1713 14.53066378089723
1 40088U 14040C   16082.91303577 +.00000072 +00000-0 +57126-4 0  9995,2 40088 047.0062 031.4310 0022292 335.4548 024.5273 14.53066794089726
1 40088U 14040C   16083.11931705  .00000075  00000-0  57852-4 0  9997,2 40088  47.0063  30.4648 0022281 336.3747  23.6112 14.53066948 89902
1 40088U 14040C   16084.15072365  .00000101  00000-0  64056-4 0  9994,2 40088  47.0064  25.6336 0022224 341.0437  18.9617 14.53067641 90055
1 40088U 14040C   16084.90708830 +.00000062 +00000-0 +54764-4 0  9991,2 40088 047.0064 022.0906 0022182 344.4487 015.5713 14.53067825090014
1 40088U 14040C   16085.18212995  .00000074  00000-0  57581-4 0  9997,2 40088  47.0064  20.8023 0022169 345.7094  14.3161 14.53068029 90205
1 40088U 14040C   16085.25089036 +.00000074 +00000-0 +57563-4 0  9993,2 40088 047.0064 020.4803 0022165 346.0303 013.9965 14.53068067090063
1 40088U 14040C   16086.21353587  .00000074  00000-0  57551-4 0  9992,2 40088  47.0065  15.9711 0022109 350.3819   9.6639 14.53068580 90351
1 40088U 14040C   16086.90113955 +.00000074 +00000-0 +57747-4 0  9998,2 40088 047.0065 012.7502 0022064 353.4827 006.5767 14.53068977090300
1 40088U 14040C   16087.79502414  .00000100  00000-0  63824-4 0  9991,2 40088  47.0065   8.5632 0022014 357.5682   2.5092 14.53069594 90589
1 40088U 14040C   16087.86378445 +.00000099 +00000-0 +63743-4 0  9991,2 40088 047.0065 008.2412 0022007 357.8843 002.1944 14.53069647090442
1 40088U 14040C   16088.62014790 +.00000123 +00000-0 +69488-4 0  9996,2 40088 047.0066 004.6983 0021963 001.3439 358.7500 14.53070238090556
1 40088U 14040C   16089.17023016  .00000149  00000-0  75574-4 0  9999,2 40088  47.0065   2.1217 0021928   3.8863 356.2187 14.53070764 90780
1 40088U 14040C   16090.82047622  .00000157  00000-0  77619-4 0  9993,2 40088  47.0065 354.3917 0021828  11.4558 348.6819 14.53071929 91023
1 40088U 14040C   16091.78311911 +.00000172 +00000-0 +81151-4 0  9997,2 40088 047.0064 349.8826 0021770 015.9055 344.2508 14.53072658091013
1 40088U 14040C   16092.12692007  .00000168  00000-0  80201-4 0  9994,2 40088  47.0063 348.2722 0021752  17.5030 342.6599 14.53072851 91210
1 40088U 14040C   16092.81452171 +.00000159 +00000-0 +77982-4 0  9998,2 40088 047.0062 345.0513 0021706 020.6842 339.4916 14.53073267091160
1 40088U 14040C   16093.15832251  .00000156  00000-0  77276-4 0  9990,2 40088  47.0062 343.4410 0021693  22.2716 337.9106 14.53073452 91363
1 40088U 14040C   16093.91468378 +.00000164 +00000-0 +79068-4 0  9999,2 40088 047.0061 339.8979 0021644 025.7763 334.4195 14.53074003091326
1 40088U 14040C   16094.80856504  .00000143  00000-0  74163-4 0  9998,2 40088  47.0059 335.7106 0021599  29.9360 330.2754 14.53074434 91602
1 40088U 14040C   16094.87732515 +.00000137 +00000-0 +72798-4 0  9995,2 40088 047.0059 335.3885 0021594 030.2538 329.9588 14.53074432091461
1 40088U 14040C   16095.83996594  .00000131  00000-0  71239-4 0  9994,2 40088  47.0058 330.8791 0021548  34.7361 325.4925 14.53074975 91758
1 40088U 14040C   16095.90872601 +.00000129 +00000-0 +70818-4 0  9993,2 40088 047.0058 330.5571 0021547 035.0609 325.1688 14.53074997091611
1 40088U 14040C   16096.87136622  .00000133  00000-0  71673-4 0  9991,2 40088  47.0057 326.0478 0021499  39.5548 320.6900 14.53075572 91902
1 40088U 14040C   16097.90276594 +.00000107 +00000-0 +65594-4 0  9995,2 40088 047.0056 321.2163 0021449 044.3882 315.8717 14.53075989091903
1 40088U 14040C   16098.04028586  .00000106  00000-0  65333-4 0  9997,2 40088  47.0055 320.5721 0021448  45.0263 315.2355 14.53076059 92074
1 40088U 14040C   16098.79664514 +.00000103 +00000-0 +64626-4 0  9997,2 40088 047.0055 317.0290 0021414 048.5775 311.6945 14.53076480092034
1 40088U 14040C   16099.07168475  .00000105  00000-0  65102-4 0  9996,2 40088  47.0055 315.7406 0021410  49.8691 310.4064 14.53076663 92228
1 40088U 14040C   16099.69052371 +.00000114 +00000-0 +67314-4 0  9998,2 40088 047.0054 312.8417 0021381 052.7763 307.5067 14.53077094092169
1 40088U 14040C   16100.51564221  .00000092  00000-0  62031-4 0  9990,2 40088  47.0053 308.9766 0021351  56.6294 303.6629 14.53077370 92438
1 40088U 14040C   16100.85944143 +.00000086 +00000-0 +60657-4 0  9997,2 40088 047.0052 307.3661 0021340 058.2667 302.0292 14.53077524092333
1 40088U 14040C   16101.68455924  .00000069  00000-0  56597-4 0  9992,2 40088  47.0051 303.5008 0021316  62.1226 298.1814 14.53077873 92605
1 40088U 14040C   16102.09711797 +.00000075 +00000-0 +57871-4 0  9994,2 40088 047.0051 301.5683 0021314 064.0651 296.2426 14.53078128092515
1 40088U 14040C   16103.12851436  .00000094  00000-0  62504-4 0  9994,2 40088  47.0049 296.7367 0021287  68.9065 291.4092 14.53078750 92817
1 40088U 14040C   16103.67859212 +.00000133 +00000-0 +71744-4 0  9994,2 40088 047.0049 294.1598 0021266 071.5301 288.7892 14.53079221092748
1 40088U 14040C   16104.50370823  .00000171  00000-0  80817-4 0  9996,2 40088  47.0048 290.2944 0021250  75.4025 284.9213 14.53079893 93019
1 40088U 14040C   16105.05378548 +.00000167 +00000-0 +79972-4 0  9994,2 40088 047.0048 287.7176 0021250 077.9885 282.3378 14.53080184092948
1 40088U 14040C   16105.67262220  .00000138  00000-0  72986-4 0  9997,2 40088  47.0048 284.8187 0021257  80.8436 279.4852 14.53080362 93189
1 40088U 14040C   16105.81014142 +.00000139 +00000-0 +73297-4 0  9998,2 40088 047.0048 284.1745 0021255 081.5044 278.8247 14.53080439093055
1 40088U 14040C   16106.08517973 +.00000153 +00000-0 +76507-4 0  9991,2 40088 047.0048 282.8861 0021251 082.8093 277.5206 14.53080696093093
